{
  "type": "FeatureCollection",
  "features": [
    {
      "type": "Feature",
      "properties": {
        "norad_id": 43602,
        "name": "BEIDOU-3 M12 (C26)",
        "group": "beidou",
        "lat": 5.358530898838168,
        "lon": -169.14463005948647,
        "alt_km": 21506.76692256049,
        "timestamp": "2025-12-24T09:46:31.269548+00:00",
        "meta_object_name": "BEIDOU-3 M12 (C26)",
        "meta_object_id": "2018-067A",
        "meta_epoch": "2025-12-22T18:52:41.106432",
        "meta_mean_motion": 1.86227882,
        "meta_eccentricity": 0.0009247,
        "meta_inclination": 54.1835,
        "meta_ra_of_asc_node": 187.0221,
        "meta_arg_of_pericenter": 41.599,
        "meta_mean_anomaly": 318.5103,
        "meta_ephemeris_type": 0,
        "meta_classification_type": "U",
        "meta_norad_cat_id": 43602,
        "meta_element_set_no": 999,
        "meta_rev_at_epoch": 4983,
        "meta_bstar": 0,
        "meta_mean_motion_dot": 9.5e-07,
        "meta_mean_motion_ddot": 0,
        "tle_line1": "1 43602U 18067A   25356.78658688  .00000095  00000+0  00000+0 0  9996",
        "tle_line2": "2 43602  54.1835 187.0221 0009247  41.5990 318.5103  1.86227882 49833"
      },
      "geometry": {
        "type": "Point",
        "coordinates": [
          -169.14463005948647,
          5.358530898838168
        ]
      }
    },
    {
      "type": "Feature",
      "properties": {
        "norad_id": 43603,
        "name": "BEIDOU-3 M11 (C25)",
        "group": "beidou",
        "lat": -53.65677052492716,
        "lon": 107.79295186941673,
        "alt_km": 21542.370594064516,
        "timestamp": "2025-12-24T09:46:31.269560+00:00",
        "meta_object_name": "BEIDOU-3 M11 (C25)",
        "meta_object_id": "2018-067B",
        "meta_epoch": "2025-12-23T23:52:51.142368",
        "meta_mean_motion": 1.86227356,
        "meta_eccentricity": 0.0005631,
        "meta_inclination": 54.1809,
        "meta_ra_of_asc_node": 186.9452,
        "meta_arg_of_pericenter": 37.7984,
        "meta_mean_anomaly": 322.2751,
        "meta_ephemeris_type": 0,
        "meta_classification_type": "U",
        "meta_norad_cat_id": 43603,
        "meta_element_set_no": 999,
        "meta_rev_at_epoch": 4988,
        "meta_bstar": 0,
        "meta_mean_motion_dot": 1.01e-06,
        "meta_mean_motion_ddot": 0,
        "tle_line1": "1 43603U 18067B   25357.99503637  .00000101  00000+0  00000+0 0  9992",
        "tle_line2": "2 43603  54.1809 186.9452 0005631  37.7984 322.2751  1.86227356 49884"
      },
      "geometry": {
        "type": "Point",
        "coordinates": [
          107.79295186941673,
          -53.65677052492716
        ]
      }
    },
    {
      "type": "Feature",
      "properties": {
        "norad_id": 43622,
        "name": "BEIDOU-3 M13 (C32)",
        "group": "beidou",
        "lat": -42.71889603653994,
        "lon": 30.753140521108662,
        "alt_km": 21515.37653129939,
        "timestamp": "2025-12-24T09:46:31.269573+00:00",
        "meta_object_name": "BEIDOU-3 M13 (C32)",
        "meta_object_id": "2018-072A",
        "meta_epoch": "2025-12-22T08:10:31.412640",
        "meta_mean_motion": 1.86231166,
        "meta_eccentricity": 0.00064111,
        "meta_inclination": 56.4667,
        "meta_ra_of_asc_node": 68.5024,
        "meta_arg_of_pericenter": 297.4685,
        "meta_mean_anomaly": 62.5173,
        "meta_ephemeris_type": 0,
        "meta_classification_type": "U",
        "meta_norad_cat_id": 43622,
        "meta_element_set_no": 999,
        "meta_rev_at_epoch": 4936,
        "meta_bstar": 0,
        "meta_mean_motion_dot": -2.9e-07,
        "meta_mean_motion_ddot": 0,
        "tle_line1": "1 43622U 18072A   25356.34064135 -.00000029  00000+0  00000+0 0  9992",
        "tle_line2": "2 43622  56.4667  68.5024 0006411 297.4685  62.5173  1.86231166 49361"
      },
      "geometry": {
        "type": "Point",
        "coordinates": [
          30.753140521108662,
          -42.71889603653994
        ]
      }
    },
    {
      "type": "Feature",
      "properties": {
        "norad_id": 43623,
        "name": "BEIDOU-3 M14 (C33)",
        "group": "beidou",
        "lat": 29.194822747514703,
        "lon": 90.16309176746537,
        "alt_km": 21520.871425599642,
        "timestamp": "2025-12-24T09:46:31.269584+00:00",
        "meta_object_name": "BEIDOU-3 M14 (C33)",
        "meta_object_id": "2018-072B",
        "meta_epoch": "2025-12-23T06:43:13.861056",
        "meta_mean_motion": 1.86231163,
        "meta_eccentricity": 0.00035931,
        "meta_inclination": 56.4696,
        "meta_ra_of_asc_node": 68.4654,
        "meta_arg_of_pericenter": 327.0772,
        "meta_mean_anomaly": 32.9541,
        "meta_ephemeris_type": 0,
        "meta_classification_type": "U",
        "meta_norad_cat_id": 43623,
        "meta_element_set_no": 999,
        "meta_rev_at_epoch": 4937,
        "meta_bstar": 0,
        "meta_mean_motion_dot": -2.6e-07,
        "meta_mean_motion_ddot": 0,
        "tle_line1": "1 43623U 18072B   25357.28002154 -.00000026  00000+0  00000+0 0  9997",
        "tle_line2": "2 43623  56.4696  68.4654 0003593 327.0772  32.9541  1.86231163 49375"
      },
      "geometry": {
        "type": "Point",
        "coordinates": [
          90.16309176746537,
          29.194822747514703
        ]
      }
    },
    {
      "type": "Feature",
      "properties": {
        "norad_id": 43647,
        "name": "BEIDOU-3 M16 (C35)",
        "group": "beidou",
        "lat": -49.69229277823024,
        "lon": -111.92197389171469,
        "alt_km": 21533.520753901917,
        "timestamp": "2025-12-24T09:46:31.269595+00:00",
        "meta_object_name": "BEIDOU-3 M16 (C35)",
        "meta_object_id": "2018-078A",
        "meta_epoch": "2025-12-23T23:23:29.633856",
        "meta_mean_motion": 1.86232286,
        "meta_eccentricity": 0.000745,
        "meta_inclination": 54.2515,
        "meta_ra_of_asc_node": 306.1286,
        "meta_arg_of_pericenter": 20.4306,
        "meta_mean_anomaly": 339.606,
        "meta_ephemeris_type": 0,
        "meta_classification_type": "U",
        "meta_norad_cat_id": 43647,
        "meta_element_set_no": 999,
        "meta_rev_at_epoch": 4889,
        "meta_bstar": 0,
        "meta_mean_motion_dot": -5.2e-07,
        "meta_mean_motion_ddot": 0,
        "tle_line1": "1 43647U 18078A   25357.97464854 -.00000052  00000+0  00000+0 0  9993",
        "tle_line2": "2 43647  54.2515 306.1286 0007450  20.4306 339.6060  1.86232286 48899"
      },
      "geometry": {
        "type": "Point",
        "coordinates": [
          -111.92197389171469,
          -49.69229277823024
        ]
      }
    },
    {
      "type": "Feature",
      "properties": {
        "norad_id": 43648,
        "name": "BEIDOU-3 M15 (C34)",
        "group": "beidou",
        "lat": -18.884834159103864,
        "lon": 140.3476394614568,
        "alt_km": 21541.804478176527,
        "timestamp": "2025-12-24T09:46:31.269607+00:00",
        "meta_object_name": "BEIDOU-3 M15 (C34)",
        "meta_object_id": "2018-078B",
        "meta_epoch": "2025-12-23T00:43:09.285312",
        "meta_mean_motion": 1.86232355,
        "meta_eccentricity": 0.00040598,
        "meta_inclination": 54.2483,
        "meta_ra_of_asc_node": 306.1625,
        "meta_arg_of_pericenter": 19.7636,
        "meta_mean_anomaly": 340.2561,
        "meta_ephemeris_type": 0,
        "meta_classification_type": "U",
        "meta_norad_cat_id": 43648,
        "meta_element_set_no": 999,
        "meta_rev_at_epoch": 4889,
        "meta_bstar": 0,
        "meta_mean_motion_dot": -5.4e-07,
        "meta_mean_motion_ddot": 0,
        "tle_line1": "1 43648U 18078B   25357.02996858 -.00000054  00000+0  00000+0 0  9996",
        "tle_line2": "2 43648  54.2483 306.1625 0004059  19.7636 340.2561  1.86232355 48891"
      },
      "geometry": {
        "type": "Point",
        "coordinates": [
          140.3476394614568,
          -18.884834159103864
        ]
      }
    },
    {
      "type": "Feature",
      "properties": {
        "norad_id": 43683,
        "name": "BEIDOU-3 G1 (C59)",
        "group": "beidou",
        "lat": -2.613460493989761,
        "lon": 19.76813053261201,
        "alt_km": 35791.47952213508,
        "timestamp": "2025-12-24T09:46:31.269619+00:00",
        "meta_object_name": "BEIDOU-3 G1 (C59)",
        "meta_object_id": "2018-085A",
        "meta_epoch": "2025-12-24T03:28:38.546112",
        "meta_mean_motion": 1.00266949,
        "meta_eccentricity": 0.0001466,
        "meta_inclination": 2.6345,
        "meta_ra_of_asc_node": 102.6299,
        "meta_arg_of_pericenter": 43.8286,
        "meta_mean_anomaly": 138.5945,
        "meta_ephemeris_type": 0,
        "meta_classification_type": "U",
        "meta_norad_cat_id": 43683,
        "meta_element_set_no": 999,
        "meta_rev_at_epoch": 2630,
        "meta_bstar": 0,
        "meta_mean_motion_dot": -2.59e-06,
        "meta_mean_motion_ddot": 0,
        "tle_line1": "1 43683U 18085A   25358.14489058 -.00000259  00000+0  00000+0 0  9993",
        "tle_line2": "2 43683   2.6345 102.6299 0001466  43.8286 138.5945  1.00266949 26306"
      },
      "geometry": {
        "type": "Point",
        "coordinates": [
          19.76813053261201,
          -2.613460493989761
        ]
      }
    }
  ]
}